NORAD_CAT_ID,OBJECT_NAME,OBJECT_TYPE,EPOCH,MEAN_MOTION,ECCENTRICITY,INCLINATION,RA_OF_ASC_NODE,ARG_OF_PERICENTER,MEAN_ANOMALY,BSTAR,MEAN_MOTION_DOT,MEAN_MOTION_DDOT,TLE_LINE0,TLE_LINE1,TLE_LINE2,SEMIMAJOR_AXIS,PERIOD,APOGEE,PERIGEE,DECAYED
51734.0,STARLINK-3450,PAYLOAD,2023-11-13 20:08:13,15.08858576,0.0001397,53.2158,160.779,89.3602,270.755,1.9667e-05,2.5e-07,0.0,0 STARLINK-3450,1 51734U 22016W   23317.83904271  .00000025  00000-0  19667-4 0  9991,2 51734  53.2158 160.7790 0001397  89.3602 270.7550 15.08858576 96828,6917.824,95.436,540.655,538.722,0.0
51734.0,STARLINK-3450,PAYLOAD,2023-11-14 07:15:55,15.08851034,0.0001345,53.2157,158.6977,89.6165,270.4981,-4.3573e-06,-3.57e-06,0.0,0 STARLINK-3450,1 51734U 22016W   23318.30272467 -.00000357  00000-0 -43573-5 0  9993,2 51734  53.2157 158.6977 0001345  89.6165 270.4981 15.08851034 96894,6917.847,95.437,540.642,538.781,0.0
51734.0,STARLINK-3450,PAYLOAD,2023-11-14 19:59:01,15.08832723,0.0001465,53.214,156.3192,80.3146,279.8012,9.5164e-05,1.227e-05,0.0,0 STARLINK-3450,1 51734U 22016W   23318.83265673  .00001227  00000-0  95164-4 0  9999,2 51734  53.2140 156.3192 0001465  80.3146 279.8012 15.08832723 96971,6917.903,95.438,540.781,538.754,0.0
51734.0,STARLINK-3450,PAYLOAD,2023-11-15 13:28:15,15.08842614,0.00015,53.2157,153.0486,82.9923,277.124,2.8221e-06,-2.43e-06,0.0,0 STARLINK-3450,1 51734U 22016W   23319.56129298 -.00000243  00000-0  28221-5 0  9991,2 51734  53.2157 153.0486 0001500  82.9923 277.1240 15.08842614 95973,6917.872,95.437,540.775,538.7,0.0
51734.0,STARLINK-3450,PAYLOAD,2023-11-15 19:49:48,15.08843962,0.0001513,53.2155,151.8587,84.8417,275.2748,1.0293e-05,-1.24e-06,0.0,0 STARLINK-3450,1 51734U 22016W   23319.82625108 -.00000124  00000-0  10293-4 0  9998,2 51734  53.2155 151.8587 0001513  84.8417 275.2748 15.08843962 97120,6917.868,95.437,540.78,538.687,0.0
51734.0,STARLINK-3450,PAYLOAD,2023-11-16 13:19:02,15.08834234,0.0001336,53.2131,148.5871,82.4088,277.7056,8.7935e-05,1.112e-05,0.0,0 STARLINK-3450,1 51734U 22016W   23320.55489475  .00001112  00000-0  87935-4 0  9999,2 51734  53.2131 148.5871 0001336  82.4088 277.7056 15.08834234 96124,6917.898,95.438,540.687,538.839,0.0
51734.0,STARLINK-3450,PAYLOAD,2023-11-17 11:34:26,15.08836909,0.0001412,53.2138,144.4252,85.9919,274.1235,6.3799e-05,7.27e-06,0.0,0 STARLINK-3450,1 51734U 22016W   23321.48225599  .00000727  00000-0  63799-4 0  9990,2 51734  53.2138 144.4252 0001412  85.9919 274.1235 15.08836909 96261,6917.89,95.438,540.732,538.778,0.0
51734.0,STARLINK-3450,PAYLOAD,2023-11-18 05:03:41,15.08836889,0.0001422,53.2139,141.1538,85.0423,275.0731,4.7803e-05,4.73e-06,0.0,0 STARLINK-3450,1 51734U 22016W   23322.21089801  .00000473  00000-0  47803-4 0  9992,2 51734  53.2139 141.1538 0001422  85.0423 275.0731 15.08836889 97488,6917.89,95.438,540.739,538.771,0.0
51734.0,STARLINK-3450,PAYLOAD,2023-11-18 20:57:31,15.08856415,0.0001378,53.2141,138.1793,84.7308,275.3841,0.00018601,2.675e-05,0.0,0 STARLINK-3450,1 51734U 22016W   23322.87327802  .00002675  00000-0  18601-3 0  9999,2 51734  53.2141 138.1793 0001378  84.7308 275.3841 15.08856415 96478,6917.83,95.437,540.648,538.742,0.0
51734.0,STARLINK-3450,PAYLOAD,2023-11-18 21:35:54,15.0885147,0.0001549,53.2187,138.0591,102.7463,42.2077,0.00014854,2.078e-05,0.0,0 STARLINK-3450,1 51734U 22016W   23322.89993225  .00002078  00000-0  14854-3 0  9992,2 51734  53.2187 138.0591 0001549 102.7463  42.2077 15.08851470 97598,6917.845,95.437,540.782,538.639,0.0
51734.0,STARLINK-3450,PAYLOAD,2023-11-19 11:15:59,15.0886559,0.0003246,53.2051,135.503,78.0065,282.129,-6.9995e-06,-4e-06,0.0,0 STARLINK-3450,1 51734U 22016W   23323.46944060 -.00000400  00000-0 -69995-5 0  9996,2 51734  53.2051 135.5030 0003246  78.0065 282.1290 15.08865590 96563,6917.802,95.436,541.913,537.422,0.0
51734.0,STARLINK-3450,PAYLOAD,2023-11-19 19:12:56,15.08842498,9.37e-05,53.2167,134.0148,88.4924,271.6175,6.9761e-07,-2.77e-06,0.0,0 STARLINK-3450,1 51734U 22016W   23323.80064860 -.00000277  00000-0  69761-6 0  9998,2 51734  53.2167 134.0148 0000937  88.4924 271.6175 15.08842498 97724,6917.873,95.437,540.386,539.09,0.0
51734.0,STARLINK-3450,PAYLOAD,2023-11-19 20:48:21,15.08780268,0.000115,53.2158,133.719,60.1481,299.9625,0.00080644,0.00012549,0.0,0 STARLINK-3450,1 51734U 22016W   23323.86691032  .00012549  00000-0  80644-3 0  9995,2 51734  53.2158 133.7190 0001150  60.1481 299.9625 15.08780268 96627,6918.063,95.441,540.724,539.132,0.0
51734.0,STARLINK-3450,PAYLOAD,2023-11-20 04:45:15,15.0884494,0.0001382,53.2163,132.2325,86.4842,273.6308,-0.00011899,-2.181e-05,0.0,0 STARLINK-3450,1 51734U 22016W   23324.19809294 -.00002181  00000-0 -11899-3 0  9992,2 51734  53.2163 132.2325 0001382  86.4842 273.6308 15.08844940 97789,6917.865,95.437,540.686,538.774,0.0
51734.0,STARLINK-3450,PAYLOAD,2023-11-20 11:06:47,15.08843849,0.0001398,53.2163,131.043,86.5146,273.6006,-0.0001198,-2.194e-05,0.0,0 STARLINK-3450,1 51734U 22016W   23324.46305268 -.00002194  00000-0 -11980-3 0  9999,2 51734  53.2163 131.0430 0001398  86.5146 273.6006 15.08843849 96712,6917.869,95.437,540.701,538.767,0.0
51734.0,STARLINK-3450,PAYLOAD,2023-11-20 19:03:43,15.08838888,0.0001386,53.2164,129.5554,90.7919,269.3232,6.1012e-07,-2.78e-06,0.0,0 STARLINK-3450,1 51734U 22016W   23324.79424935 -.00000278  00000-0  61012-6 0  9992,2 51734  53.2164 129.5554 0001386  90.7919 269.3232 15.08838888 96769,6917.884,95.438,540.708,538.79,0.0
51734.0,STARLINK-3450,PAYLOAD,2023-11-21 10:57:34,15.08832176,0.0001399,53.216,126.5824,88.1396,271.9756,4.4669e-05,4.23e-06,0.0,0 STARLINK-3450,1 51734U 22016W   23325.45665320  .00000423  00000-0  44669-4 0  9999,2 51734  53.2160 126.5824 0001399  88.1396 271.9756 15.08832176 97974,6917.904,95.438,540.737,538.801,0.0
51734.0,STARLINK-3450,PAYLOAD,2023-11-21 17:19:07,15.08835168,0.0001412,53.2159,125.3929,88.106,272.0094,6.9672e-05,8.21e-06,0.0,0 STARLINK-3450,1 51734U 22016W   23325.72161189  .00000821  00000-0  69672-4 0  9996,2 51734  53.2159 125.3929 0001412  88.1060 272.0094 15.08835168 96902,6917.895,95.438,540.737,538.783,0.0
51734.0,STARLINK-3450,PAYLOAD,2023-11-22 13:59:07,15.08840747,0.0001405,53.2161,121.5271,88.9042,271.2111,9.0324e-05,1.15e-05,0.0,0 STARLINK-3450,1 51734U 22016W   23326.58272994  .00001150  00000-0  90324-4 0  9992,2 51734  53.2161 121.5271 0001405  88.9042 271.2111 15.08840747 97038,6917.878,95.438,540.715,538.771,0.0
51734.0,STARLINK-3450,PAYLOAD,2023-11-22 17:09:53,15.08843658,0.0001419,53.2163,120.9323,89.9234,270.1921,0.00010305,1.353e-05,0.0,0 STARLINK-3450,1 51734U 22016W   23326.71520786  .00001353  00000-0  10305-3 0  9997,2 51734  53.2163 120.9323 0001419  89.9234 270.1921 15.08843658 98166,6917.869,95.437,540.716,538.753,0.0
51734.0,STARLINK-3450,PAYLOAD,2023-11-23 10:39:09,15.08837719,0.0002067,53.2184,117.6638,99.7704,260.3521,-5.6654e-05,-1.19e-05,0.0,0 STARLINK-3450,1 51734U 22016W   23327.44385853 -.00001190  00000-0 -56654-4 0  9991,2 51734  53.2184 117.6638 0002067  99.7704 260.3521 15.08837719 98272,6917.887,95.438,541.182,538.322,0.0
51734.0,STARLINK-3450,PAYLOAD,2023-11-23 13:49:56,15.0882998,0.0001544,53.2166,117.0657,110.8666,249.2492,-2.5181e-05,-6.89e-06,0.0,0 STARLINK-3450,1 51734U 22016W   23327.57634280 -.00000689  00000-0 -25181-4 0  9999,2 51734  53.2166 117.0657 0001544 110.8666 249.2492 15.08829980 97181,6917.911,95.438,540.844,538.708,0.0
51734.0,STARLINK-3450,PAYLOAD,2023-11-23 15:25:19,15.08829377,0.0001517,53.2167,116.7682,111.6449,248.4705,-3.1767e-05,-7.93e-06,0.0,0 STARLINK-3450,1 51734U 22016W   23327.64258365 -.00000793  00000-0 -31767-4 0  9996,2 51734  53.2167 116.7682 0001517 111.6449 248.4705 15.08829377 98307,6917.913,95.438,540.827,538.728,0.0
51734.0,STARLINK-3450,PAYLOAD,2023-11-24 13:40:43,15.08837539,0.0001554,53.2178,112.6089,114.8792,245.2362,-1.8312e-05,-5.79e-06,0.0,0 STARLINK-3450,1 51734U 22016W   23328.56994339 -.00000579  00000-0 -18312-4 0  9999,2 51734  53.2178 112.6089 0001554 114.8792 245.2362 15.08837539 97337,6917.888,95.438,540.828,538.678,0.0
51734.0,STARLINK-3450,PAYLOAD,2023-11-24 16:51:29,15.08842396,0.0001515,53.2177,112.0129,114.1127,246.0023,2.2753e-06,-2.52e-06,0.0,0 STARLINK-3450,1 51734U 22016W   23328.70241993 -.00000252  00000-0  22753-5 0  9998,2 51734  53.2177 112.0129 0001515 114.1127 246.0023 15.08842396 98462,6917.873,95.437,540.786,538.69,0.0
51734.0,STARLINK-3450,PAYLOAD,2023-11-25 13:31:30,15.08835954,0.0001183,53.2156,108.1475,86.308,273.8048,0.00018874,2.717e-05,0.0,0 STARLINK-3450,1 51734U 22016W   23329.56354294  .00002717  00000-0  18874-3 0  9996,2 51734  53.2156 108.1475 0001183  86.3080 273.8048 15.08835954 97486,6917.893,95.438,540.576,538.939,0.0
51734.0,STARLINK-3450,PAYLOAD,2023-11-25 18:17:38,15.08847778,0.0001403,53.2162,107.253,86.1394,273.9759,0.00028668,4.278e-05,0.0,0 STARLINK-3450,1 51734U 22016W   23329.76225555  .00004278  00000-0  28668-3 0  9991,2 51734  53.2162 107.2530 0001403  86.1394 273.9759 15.08847778 97517,6917.857,95.437,540.692,538.751,0.0
51734.0,STARLINK-3450,PAYLOAD,2023-11-26 13:22:16,15.08848624,0.0001504,53.2157,103.6849,69.8024,290.313,0.00012656,1.727e-05,0.0,0 STARLINK-3450,1 51734U 22016W   23330.55713515  .00001727  00000-0  12656-3 0  9994,2 51734  53.2157 103.6849 0001504  69.8024 290.3130 15.08848624 97634,6917.854,95.437,540.759,538.679,0.0
51734.0,STARLINK-3450,PAYLOAD,2023-11-26 16:33:02,15.08851509,0.0001379,53.2156,103.0897,80.2083,279.9064,0.00013458,1.855e-05,0.0,0 STARLINK-3450,1 51734U 22016W   23330.68961274  .00001855  00000-0  13458-3 0  9998,2 51734  53.2156 103.0897 0001379  80.2083 279.9064 15.08851509 98762,6917.845,95.437,540.664,538.756,0.0
51734.0,STARLINK-3450,PAYLOAD,2023-11-27 14:48:27,15.08833503,0.0001726,53.2173,98.9282,60.0147,300.1016,-0.00017139,-3.014e-05,0.0,0 STARLINK-3450,1 51734U 22016W   23331.61698572 -.00003014  00000-0 -17139-3 0  9991,2 51734  53.2173  98.9282 0001726  60.0147 300.1016 15.08833503 97794,6917.9,95.438,540.959,538.571,0.0
